[{"OBJECT_NAME":"ONEWEB-0547","OBJECT_ID":"2023-043D","EPOCH":"2026-03-09T22:26:42.796320","MEAN_MOTION":13.21824528,"ECCENTRICITY":0.00017322,"INCLINATION":87.9163,"RA_OF_ASC_NODE":263.7622,"ARG_OF_PERICENTER":92.3803,"MEAN_ANOMALY":267.7529,"EPHEMERIS_TYPE":0,"CLASSIFICATION_TYPE":"U","NORAD_CAT_ID":56049,"ELEMENT_SET_NO":999,"REV_AT_EPOCH":14511,"BSTAR":4.1187573e-5,"MEAN_MOTION_DOT":3.0e-7,"MEAN_MOTION_DDOT":0},{"OBJECT_NAME":"FENGYUN 1C DEB","OBJECT_ID":"1999-025ZS","EPOCH":"2026-03-09T18:43:58.566144","MEAN_MOTION":13.60285247,"ECCENTRICITY":0.02638381,"INCLINATION":98.5957,"RA_OF_ASC_NODE":3.2973,"ARG_OF_PERICENTER":233.2093,"MEAN_ANOMALY":184.7982,"EPHEMERIS_TYPE":0,"CLASSIFICATION_TYPE":"U","NORAD_CAT_ID":30305,"ELEMENT_SET_NO":999,"REV_AT_EPOCH":94957,"BSTAR":0.00019961158,"MEAN_MOTION_DOT":1.5e-6,"MEAN_MOTION_DDOT":0}]
